[{"OBJECT_NAME":"STARLINK-30765","OBJECT_ID":"2023-162B","EPOCH":"2026-03-09T22:00:01.999584","MEAN_MOTION":15.26758904,"ECCENTRICITY":0.00011718,"INCLINATION":43,"RA_OF_ASC_NODE":130.6826,"ARG_OF_PERICENTER":258.6577,"MEAN_ANOMALY":252.9442,"EPHEMERIS_TYPE":0,"CLASSIFICATION_TYPE":"U","NORAD_CAT_ID":58119,"ELEMENT_SET_NO":999,"REV_AT_EPOCH":577,"BSTAR":-0.00036166039,"MEAN_MOTION_DOT":-9.953e-5,"MEAN_MOTION_DDOT":0},{"OBJECT_NAME":"TIANMU-1 16","OBJECT_ID":"2024-004B","EPOCH":"2026-03-09T23:11:35.492064","MEAN_MOTION":15.25874833,"ECCENTRICITY":0.00051977,"INCLINATION":97.4617,"RA_OF_ASC_NODE":254.5267,"ARG_OF_PERICENTER":355.4475,"MEAN_ANOMALY":4.6715,"EPHEMERIS_TYPE":0,"CLASSIFICATION_TYPE":"U","NORAD_CAT_ID":58701,"ELEMENT_SET_NO":999,"REV_AT_EPOCH":12064,"BSTAR":0.00031061517,"MEAN_MOTION_DOT":7.887e-5,"MEAN_MOTION_DDOT":0}]
